[{"OBJECT_NAME":"HAWK-11A","OBJECT_ID":"2024-247F","EPOCH":"2026-03-09T12:17:43.893312","MEAN_MOTION":15.28849427,"ECCENTRICITY":0.00054663,"INCLINATION":44.9941,"RA_OF_ASC_NODE":114.3328,"ARG_OF_PERICENTER":327.3713,"MEAN_ANOMALY":32.6832,"EPHEMERIS_TYPE":0,"CLASSIFICATION_TYPE":"U","NORAD_CAT_ID":62382,"ELEMENT_SET_NO":999,"REV_AT_EPOCH":6774,"BSTAR":0.00034106017,"MEAN_MOTION_DOT":9.457e-5,"MEAN_MOTION_DDOT":0},{"OBJECT_NAME":"STARLINK-33836","OBJECT_ID":"2025-083J","EPOCH":"2026-03-09T03:58:07.311360","MEAN_MOTION":15.27557541,"ECCENTRICITY":9.73e-5,"INCLINATION":43.0029,"RA_OF_ASC_NODE":8.4357,"ARG_OF_PERICENTER":172.3981,"MEAN_ANOMALY":187.6886,"EPHEMERIS_TYPE":0,"CLASSIFICATION_TYPE":"U","NORAD_CAT_ID":63642,"ELEMENT_SET_NO":999,"REV_AT_EPOCH":4998,"BSTAR":1.9221575e-5,"MEAN_MOTION_DOT":2.67e-6,"MEAN_MOTION_DDOT":0}]
